[
  {
    "OBJECT_NAME": "STARLINK-2626",
    "OBJECT_ID": "21038L",
    "EPOCH": "2025-11-11T08:00:03.000384",
    "MEAN_MOTION": 15.67476905,
    "ECCENTRICITY": 0.0005584,
    "INCLINATION": 53.0514,
    "RA_OF_ASC_NODE": 96.5319,
    "ARG_OF_PERICENTER": 289.7305,
    "MEAN_ANOMALY": 326.1376,
    "EPHEMERIS_TYPE": 0,
    "CLASSIFICATION_TYPE": "U",
    "NORAD_CAT_ID": 48363,
    "ELEMENT_SET_NO": 999,
    "REV_AT_EPOCH": 596,
    "BSTAR": 0.002258,
    "MEAN_MOTION_DOT": 0.00257083,
    "MEAN_MOTION_DDOT": 0.0,
    "TLE_LINE1": "1 48363U 21038L   25315.33336806  .00257083  00000+0  22580-2 0  9999",
    "TLE_LINE2": "2 48363  53.0514  96.5319 0005584 289.7305 326.1376 15.67476905  5961",
    "COMMENT": "Grouped by shell and plane from TLE"
  },
  {
    "OBJECT_NAME": "STARLINK-5015",
    "OBJECT_ID": "22119AX",
    "EPOCH": "2025-11-11T08:00:03.000384",
    "MEAN_MOTION": 15.92420524,
    "ECCENTRICITY": 0.0001467,
    "INCLINATION": 53.208,
    "RA_OF_ASC_NODE": 93.0503,
    "ARG_OF_PERICENTER": 60.358,
    "MEAN_ANOMALY": 265.3032,
    "EPHEMERIS_TYPE": 0,
    "CLASSIFICATION_TYPE": "U",
    "NORAD_CAT_ID": 53931,
    "ELEMENT_SET_NO": 999,
    "REV_AT_EPOCH": 587,
    "BSTAR": 0.0028528,
    "MEAN_MOTION_DOT": 0.00982527,
    "MEAN_MOTION_DDOT": 0.00042886000000000004,
    "TLE_LINE1": "1 53931U 22119AX  25315.33336806  .00982527  42886-3  28528-2 0  9995",
    "TLE_LINE2": "2 53931  53.2080  93.0503 0001467  60.3580 265.3032 15.92420524  5876",
    "COMMENT": "Grouped by shell and plane from TLE"
  },
  {
    "OBJECT_NAME": "STARLINK-30163",
    "OBJECT_ID": "23096V",
    "EPOCH": "2025-11-11T08:00:03.000384",
    "MEAN_MOTION": 15.70964333,
    "ECCENTRICITY": 0.0033078,
    "INCLINATION": 42.9839,
    "RA_OF_ASC_NODE": 90.5975,
    "ARG_OF_PERICENTER": 330.145,
    "MEAN_ANOMALY": 70.2309,
    "EPHEMERIS_TYPE": 0,
    "CLASSIFICATION_TYPE": "U",
    "NORAD_CAT_ID": 57309,
    "ELEMENT_SET_NO": 999,
    "REV_AT_EPOCH": 592,
    "BSTAR": 0.0094457,
    "MEAN_MOTION_DOT": 0.01409896,
    "MEAN_MOTION_DDOT": 0.0,
    "TLE_LINE1": "1 57309U 23096V   25315.33336806  .01409896  00000+0  94457-2 0  9999",
    "TLE_LINE2": "2 57309  42.9839  90.5975 0033078 330.1450  70.2309 15.70964333  5921",
    "COMMENT": "Grouped by shell and plane from TLE"
  },
  {
    "OBJECT_NAME": "STARLINK-11741 [DTC]",
    "OBJECT_ID": "25107A",
    "EPOCH": "2025-11-10T17:39:38.535552",
    "MEAN_MOTION": 15.709124,
    "ECCENTRICITY": 0.0002716,
    "INCLINATION": 43.0012,
    "RA_OF_ASC_NODE": 95.7927,
    "ARG_OF_PERICENTER": 266.3274,
    "MEAN_ANOMALY": 93.7283,
    "EPHEMERIS_TYPE": 0,
    "CLASSIFICATION_TYPE": "U",
    "NORAD_CAT_ID": 64064,
    "ELEMENT_SET_NO": 999,
    "REV_AT_EPOCH": 2858,
    "BSTAR": 0.0019786,
    "MEAN_MOTION_DOT": 0.00262424,
    "MEAN_MOTION_DDOT": 0.0,
    "TLE_LINE1": "1 64064U 25107A   25314.73586268  .00262424  00000+0  19786-2 0  9997",
    "TLE_LINE2": "2 64064  43.0012  95.7927 0002716 266.3274  93.7283 15.70912400 28581",
    "COMMENT": "Grouped by shell and plane from TLE"
  },
  {
    "OBJECT_NAME": "STARLINK-11709 [DTC]",
    "OBJECT_ID": "25107B",
    "EPOCH": "2025-11-11T06:53:06.941760",
    "MEAN_MOTION": 15.70944853,
    "ECCENTRICITY": 0.0001254,
    "INCLINATION": 42.9979,
    "RA_OF_ASC_NODE": 92.1738,
    "ARG_OF_PERICENTER": 267.9617,
    "MEAN_ANOMALY": 92.1107,
    "EPHEMERIS_TYPE": 0,
    "CLASSIFICATION_TYPE": "U",
    "NORAD_CAT_ID": 64065,
    "ELEMENT_SET_NO": 999,
    "REV_AT_EPOCH": 2867,
    "BSTAR": 0.0021916,
    "MEAN_MOTION_DOT": 0.00292163,
    "MEAN_MOTION_DDOT": 0.0,
    "TLE_LINE1": "1 64065U 25107B   25315.28688590  .00292163  00000+0  21916-2 0  9991",
    "TLE_LINE2": "2 64065  42.9979  92.1738 0001254 267.9617  92.1107 15.70944853 28672",
    "COMMENT": "Grouped by shell and plane from TLE"
  },
  {
    "OBJECT_NAME": "STARLINK-11737 [DTC]",
    "OBJECT_ID": "25107C",
    "EPOCH": "2025-11-11T01:55:29.432064",
    "MEAN_MOTION": 15.70918985,
    "ECCENTRICITY": 6.27e-05,
    "INCLINATION": 42.9988,
    "RA_OF_ASC_NODE": 93.1925,
    "ARG_OF_PERICENTER": 302.381,
    "MEAN_ANOMALY": 57.6997,
    "EPHEMERIS_TYPE": 0,
    "CLASSIFICATION_TYPE": "U",
    "NORAD_CAT_ID": 64066,
    "ELEMENT_SET_NO": 999,
    "REV_AT_EPOCH": 2864,
    "BSTAR": 0.0019847000000000003,
    "MEAN_MOTION_DOT": 0.00263334,
    "MEAN_MOTION_DDOT": 0.0,
    "TLE_LINE1": "1 64066U 25107C   25315.08020176  .00263334  00000+0  19847-2 0  9998",
    "TLE_LINE2": "2 64066  42.9988  93.1925 0000627 302.3810  57.6997 15.70918985 28641",
    "COMMENT": "Grouped by shell and plane from TLE"
  },
  {
    "OBJECT_NAME": "STARLINK-11726 [DTC]",
    "OBJECT_ID": "25107D",
    "EPOCH": "2025-11-10T18:02:23.445600",
    "MEAN_MOTION": 15.70927029,
    "ECCENTRICITY": 0.0002855,
    "INCLINATION": 43.0,
    "RA_OF_ASC_NODE": 95.0259,
    "ARG_OF_PERICENTER": 269.1197,
    "MEAN_ANOMALY": 90.9344,
    "EPHEMERIS_TYPE": 0,
    "CLASSIFICATION_TYPE": "U",
    "NORAD_CAT_ID": 64067,
    "ELEMENT_SET_NO": 999,
    "REV_AT_EPOCH": 2859,
    "BSTAR": 0.0017168,
    "MEAN_MOTION_DOT": 0.00226798,
    "MEAN_MOTION_DDOT": 0.0,
    "TLE_LINE1": "1 64067U 25107D   25314.75166025  .00226798  00000+0  17168-2 0  9993",
    "TLE_LINE2": "2 64067  43.0000  95.0259 0002855 269.1197  90.9344 15.70927029 28592",
    "COMMENT": "Grouped by shell and plane from TLE"
  },
  {
    "OBJECT_NAME": "STARLINK-11700 [DTC]",
    "OBJECT_ID": "25107E",
    "EPOCH": "2025-11-11T02:35:01.764384",
    "MEAN_MOTION": 15.7093375,
    "ECCENTRICITY": 8.33e-05,
    "INCLINATION": 42.9998,
    "RA_OF_ASC_NODE": 93.4143,
    "ARG_OF_PERICENTER": 298.8144,
    "MEAN_ANOMALY": 61.264,
    "EPHEMERIS_TYPE": 0,
    "CLASSIFICATION_TYPE": "U",
    "NORAD_CAT_ID": 64068,
    "ELEMENT_SET_NO": 999,
    "REV_AT_EPOCH": 2864,
    "BSTAR": 0.0022033,
    "MEAN_MOTION_DOT": 0.00293647,
    "MEAN_MOTION_DDOT": 0.0,
    "TLE_LINE1": "1 64068U 25107E   25315.10765931  .00293647  00000+0  22033-2 0  9999",
    "TLE_LINE2": "2 64068  42.9998  93.4143 0000833 298.8144  61.2640 15.70933750 28640",
    "COMMENT": "Grouped by shell and plane from TLE"
  },
  {
    "OBJECT_NAME": "STARLINK-11649 [DTC]",
    "OBJECT_ID": "25107F",
    "EPOCH": "2025-11-10T20:50:24.761760",
    "MEAN_MOTION": 15.70866355,
    "ECCENTRICITY": 0.0001465,
    "INCLINATION": 42.9999,
    "RA_OF_ASC_NODE": 95.0669,
    "ARG_OF_PERICENTER": 309.453,
    "MEAN_ANOMALY": 50.6208,
    "EPHEMERIS_TYPE": 0,
    "CLASSIFICATION_TYPE": "U",
    "NORAD_CAT_ID": 64069,
    "ELEMENT_SET_NO": 999,
    "REV_AT_EPOCH": 2860,
    "BSTAR": 0.0015603000000000001,
    "MEAN_MOTION_DOT": 0.00205006,
    "MEAN_MOTION_DDOT": 0.0,
    "TLE_LINE1": "1 64069U 25107F   25314.86834215  .00205006  00000+0  15603-2 0  9991",
    "TLE_LINE2": "2 64069  42.9999  95.0669 0001465 309.4530  50.6208 15.70866355 28607",
    "COMMENT": "Grouped by shell and plane from TLE"
  },
  {
    "OBJECT_NAME": "STARLINK-11713 [DTC]",
    "OBJECT_ID": "25107G",
    "EPOCH": "2025-11-11T02:10:46.874784",
    "MEAN_MOTION": 15.71008695,
    "ECCENTRICITY": 0.0001292,
    "INCLINATION": 43.0,
    "RA_OF_ASC_NODE": 93.2759,
    "ARG_OF_PERICENTER": 306.5173,
    "MEAN_ANOMALY": 53.5576,
    "EPHEMERIS_TYPE": 0,
    "CLASSIFICATION_TYPE": "U",
    "NORAD_CAT_ID": 64070,
    "ELEMENT_SET_NO": 999,
    "REV_AT_EPOCH": 2864,
    "BSTAR": 0.0022344,
    "MEAN_MOTION_DOT": 0.00298926,
    "MEAN_MOTION_DDOT": 0.0,
    "TLE_LINE1": "1 64070U 25107G   25315.09082031  .00298926  00000+0  22344-2 0  9993",
    "TLE_LINE2": "2 64070  43.0000  93.2759 0001292 306.5173  53.5576 15.71008695 28643",
    "COMMENT": "Grouped by shell and plane from TLE"
  },
  {
    "OBJECT_NAME": "STARLINK-11719 [DTC]",
    "OBJECT_ID": "25107H",
    "EPOCH": "2025-11-11T02:33:44.241984",
    "MEAN_MOTION": 15.70899751,
    "ECCENTRICITY": 0.0002991,
    "INCLINATION": 42.9993,
    "RA_OF_ASC_NODE": 93.406,
    "ARG_OF_PERICENTER": 36.8033,
    "MEAN_ANOMALY": 323.304,
    "EPHEMERIS_TYPE": 0,
    "CLASSIFICATION_TYPE": "U",
    "NORAD_CAT_ID": 64071,
    "ELEMENT_SET_NO": 999,
    "REV_AT_EPOCH": 2864,
    "BSTAR": 0.0022321,
    "MEAN_MOTION_DOT": 0.002972,
    "MEAN_MOTION_DDOT": 0.0,
    "TLE_LINE1": "1 64071U 25107H   25315.10676206  .00297200  00000+0  22321-2 0  9998",
    "TLE_LINE2": "2 64071  42.9993  93.4060 0002991  36.8033 323.3040 15.70899751 28649",
    "COMMENT": "Grouped by shell and plane from TLE"
  },
  {
    "OBJECT_NAME": "STARLINK-11733 [DTC]",
    "OBJECT_ID": "25107J",
    "EPOCH": "2025-11-11T00:00:02.999808",
    "MEAN_MOTION": 15.70877128,
    "ECCENTRICITY": 0.0001586,
    "INCLINATION": 43.0,
    "RA_OF_ASC_NODE": 93.6004,
    "ARG_OF_PERICENTER": 272.5359,
    "MEAN_ANOMALY": 23.7159,
    "EPHEMERIS_TYPE": 0,
    "CLASSIFICATION_TYPE": "U",
    "NORAD_CAT_ID": 64072,
    "ELEMENT_SET_NO": 999,
    "REV_AT_EPOCH": 600,
    "BSTAR": 0.0,
    "MEAN_MOTION_DOT": -0.00107924,
    "MEAN_MOTION_DDOT": 0.0,
    "TLE_LINE1": "1 64072U 25107J   25315.00003472 -.00107924  00000+0 -84718-3 0  9991",
    "TLE_LINE2": "2 64072  43.0000  93.6004 0001586 272.5359  23.7159 15.70877128  6002",
    "COMMENT": "Grouped by shell and plane from TLE"
  },
  {
    "OBJECT_NAME": "STARLINK-11729 [DTC]",
    "OBJECT_ID": "25107K",
    "EPOCH": "2025-11-10T19:03:32.876064",
    "MEAN_MOTION": 15.70963185,
    "ECCENTRICITY": 0.0003612,
    "INCLINATION": 43.0017,
    "RA_OF_ASC_NODE": 95.3642,
    "ARG_OF_PERICENTER": 278.8169,
    "MEAN_ANOMALY": 81.229,
    "EPHEMERIS_TYPE": 0,
    "CLASSIFICATION_TYPE": "U",
    "NORAD_CAT_ID": 64073,
    "ELEMENT_SET_NO": 999,
    "REV_AT_EPOCH": 2859,
    "BSTAR": 0.0021867,
    "MEAN_MOTION_DOT": 0.00291744,
    "MEAN_MOTION_DDOT": 0.0,
    "TLE_LINE1": "1 64073U 25107K   25314.79413051  .00291744  00000+0  21867-2 0  9992",
    "TLE_LINE2": "2 64073  43.0017  95.3642 0003612 278.8169  81.2290 15.70963185 28590",
    "COMMENT": "Grouped by shell and plane from TLE"
  }
]